NORAD_CAT_ID,OBJECT_NAME,OBJECT_TYPE,EPOCH,MEAN_MOTION,ECCENTRICITY,INCLINATION,RA_OF_ASC_NODE,ARG_OF_PERICENTER,MEAN_ANOMALY,BSTAR,MEAN_MOTION_DOT,MEAN_MOTION_DDOT,TLE_LINE0,TLE_LINE1,TLE_LINE2,SEMIMAJOR_AXIS,PERIOD,APOGEE,PERIGEE,DECAYED
49743.0,STARLINK-3239,PAYLOAD,2023-02-08 15:57:16,15.08851839,0.0001198,53.2168,159.5498,99.6132,260.4996,8.6347e-05,1.087e-05,0.0,0 STARLINK-3239,1 49743U 21115V   23039.66477898  .00001087  00000-0  86347-4 0  9997,2 49743  53.2168 159.5498 0001198  99.6132 260.4996 15.08851839 66808,6917.844,95.437,540.538,538.88,0.0
49743.0,STARLINK-3239,PAYLOAD,2023-02-09 01:29:37,15.08820896,9.59e-05,53.2168,157.7695,96.0162,264.0939,-0.00023119,-3.963e-05,0.0,0 STARLINK-3239,1 49743U 21115V   23040.06223781 -.00003963  00000-0 -23119-3 0  9997,2 49743  53.2168 157.7695 0000959  96.0162 264.0939 15.08820896 66867,6917.939,95.439,540.467,539.14,0.0
49743.0,STARLINK-3239,PAYLOAD,2023-02-09 11:01:56,15.08814846,0.0001504,53.2166,155.9817,115.3047,244.8101,-0.00024454,-4.175e-05,0.0,0 STARLINK-3239,1 49743U 21115V   23040.45968705 -.00004175  00000-0 -24454-3 0  9991,2 49743  53.2166 155.9817 0001504 115.3047 244.8101 15.08814846 65814,6917.957,95.439,540.863,538.782,0.0
49743.0,STARLINK-3239,PAYLOAD,2023-02-09 18:58:51,15.08843696,0.0001146,53.2159,154.4963,74.6752,285.4366,0.00042936,6.553e-05,0.0,0 STARLINK-3239,1 49743U 21115V   23040.79087844  .00006553  00000-0  42936-3 0  9999,2 49743  53.2159 154.4963 0001146  74.6752 285.4366 15.08843696 66971,6917.869,95.437,540.527,538.941,0.0
49743.0,STARLINK-3239,PAYLOAD,2023-02-10 15:38:54,15.08834824,0.0001074,53.2151,150.6311,91.2497,268.8618,0.00046057,7.049e-05,0.0,0 STARLINK-3239,1 49743U 21115V   23041.65201789  .00007049  00000-0  46057-3 0  9990,2 49743  53.2151 150.6311 0001074  91.2497 268.8618 15.08834824 67103,6917.896,95.438,540.504,539.018,0.0
49743.0,STARLINK-3239,PAYLOAD,2023-02-10 18:49:40,15.08843384,0.0001118,53.2155,150.0364,81.7019,278.4099,0.00078919,0.00012295,0.0,0 STARLINK-3239,1 49743U 21115V   23041.78449929  .00012295  00000-0  78919-3 0  9995,2 49743  53.2155 150.0364 0001118  81.7019 278.4099 15.08843384 66012,6917.87,95.437,540.508,538.962,0.0
49743.0,STARLINK-3239,PAYLOAD,2023-02-10 23:35:50,15.08855028,0.0001183,53.2155,149.1452,73.8919,286.2203,0.0010212,0.00016008,0.0,0 STARLINK-3239,1 49743U 21115V   23041.98321803  .00016008  00000-0  10212-2 0  9994,2 49743  53.2155 149.1452 0001183  73.8919 286.2203 15.08855028 67150,6917.834,95.437,540.518,538.881,0.0
49743.0,STARLINK-3239,PAYLOAD,2023-02-11 12:18:53,15.08896384,0.0001312,53.2149,146.7674,71.6413,288.4721,0.0019564,0.00031034,0.0,0 STARLINK-3239,1 49743U 21115V   23042.51312400  .00031034  00000-0  19564-2 0  9992,2 49743  53.2149 146.7674 0001312  71.6413 288.4721 15.08896384 67239,6917.708,95.434,540.481,538.665,0.0
49743.0,STARLINK-3239,PAYLOAD,2023-02-11 18:40:25,15.08934199,0.0001418,53.2155,145.5783,66.1814,293.9326,0.003017,0.00048181,0.0,0 STARLINK-3239,1 49743U 21115V   23042.77806893  .00048181  00000-0  30170-2 0  9991,2 49743  53.2155 145.5783 0001418  66.1814 293.9326 15.08934199 67278,6917.592,95.432,540.438,538.477,0.0
49743.0,STARLINK-3239,PAYLOAD,2023-02-12 13:45:03,15.08866719,0.0001375,53.215,142.0098,94.9311,265.1838,0.0023062,0.00036633,0.0,0 STARLINK-3239,1 49743U 21115V   23043.57295348  .00036633  00000-0  23062-2 0  9998,2 49743  53.2150 142.0098 0001375  94.9311 265.1838 15.08866719 67391,6917.799,95.436,540.615,538.713,0.0
49743.0,STARLINK-3239,PAYLOAD,2023-02-12 23:17:21,15.0884111,5.85e-05,53.2144,140.2256,151.4879,208.6145,0.0019994,0.00031677,0.0,0 STARLINK-3239,1 49743U 21115V   23043.97039097  .00031677  00000-0  19994-2 0  9991,2 49743  53.2144 140.2256 0000585 151.4879 208.6145 15.08841110 67458,6917.877,95.437,540.147,539.337,0.0
49743.0,STARLINK-3239,PAYLOAD,2023-02-13 18:21:59,15.08881682,0.0001537,53.2145,136.6569,102.6261,257.4903,0.0028624,0.00045614,0.0,0 STARLINK-3239,1 49743U 21115V   23044.76527199  .00045614  00000-0  28624-2 0  9990,2 49743  53.2145 136.6569 0001537 102.6261 257.4903 15.08881682 67571,6917.753,95.435,540.681,538.555,0.0
49743.0,STARLINK-3239,PAYLOAD,2023-02-13 23:08:09,15.08817659,0.0002451,53.2145,135.766,82.9321,277.195,0.0026845,0.0004267,0.0,0 STARLINK-3239,1 49743U 21115V   23044.96399871  .00042670  00000-0  26845-2 0  9998,2 49743  53.2145 135.7660 0002451  82.9321 277.1950 15.08817659 67604,6917.949,95.439,541.509,538.118,0.0
49743.0,STARLINK-3239,PAYLOAD,2023-02-14 18:12:46,15.08859438,4.3e-05,53.2152,132.1988,87.4246,272.6796,0.0016827,0.00026608,0.0,0 STARLINK-3239,1 49743U 21115V   23045.75887027  .00026608  00000-0  16827-2 0  9993,2 49743  53.2152 132.1988 0000430  87.4246 272.6796 15.08859438 67729,6917.821,95.436,539.983,539.389,0.0
49743.0,STARLINK-3239,PAYLOAD,2023-02-14 22:58:55,15.08820356,2.41e-05,53.2152,131.3066,204.8957,155.2024,0.0012977,0.00020414,0.0,0 STARLINK-3239,1 49743U 21115V   23045.95759035  .00020414  00000-0  12977-2 0  9993,2 49743  53.2152 131.3066 0000241 204.8957 155.2024 15.08820356 67751,6917.94,95.439,539.972,539.639,0.0
49743.0,STARLINK-3239,PAYLOAD,2023-02-15 11:42:01,15.08871691,0.0001027,53.2145,128.9258,102.9574,257.1533,0.0030236,0.00048204,0.0,0 STARLINK-3239,1 49743U 21115V   23046.48751213  .00048204  00000-0  30236-2 0  9997,2 49743  53.2145 128.9258 0001027 102.9574 257.1533 15.08871691 67838,6917.784,95.436,540.359,538.938,0.0
49743.0,STARLINK-3239,PAYLOAD,2023-02-15 14:52:46,15.0889694,0.000108,53.2148,128.3306,102.2506,257.8607,0.0038914,0.00062288,0.0,0 STARLINK-3239,1 49743U 21115V   23046.61998772  .00062288  00000-0  38914-2 0  9994,2 49743  53.2148 128.3306 0001080 102.2506 257.8607 15.08896940 67851,6917.706,95.434,540.318,538.824,0.0
49743.0,STARLINK-3239,PAYLOAD,2023-02-16 08:22:00,15.08890925,0.0001215,53.2162,125.06,106.3688,253.7438,0.0029055,0.00046322,0.0,0 STARLINK-3239,1 49743U 21115V   23047.34862253  .00046322  00000-0  29055-2 0  9996,2 49743  53.2162 125.0600 0001215 106.3688 253.7438 15.08890925 67960,6917.725,95.434,540.43,538.749,0.0
49743.0,STARLINK-3239,PAYLOAD,2023-02-16 11:32:47,15.08885729,9.96e-05,53.2146,124.4655,66.1265,293.9832,0.0025867,0.00041172,0.0,0 STARLINK-3239,1 49743U 21115V   23047.48110126  .00041172  00000-0  25867-2 0  9991,2 49743  53.2146 124.4655 0000996  66.1265 293.9832 15.08885729 67986,6917.741,95.435,540.295,538.917,0.0
49743.0,STARLINK-3239,PAYLOAD,2023-02-16 16:18:55,15.08909155,0.0001097,53.2147,123.5733,67.2947,292.8161,0.0030318,0.00048386,0.0,0 STARLINK-3239,1 49743U 21115V   23047.67981349  .00048386  00000-0  30318-2 0  9996,2 49743  53.2147 123.5733 0001097  67.2947 292.8161 15.08909155 66900,6917.669,95.433,540.293,538.775,0.0
49743.0,STARLINK-3239,PAYLOAD,2023-02-17 05:02:01,15.08822213,9.32e-05,53.217,121.194,108.1749,251.9345,-0.00018355,-3.206e-05,0.0,0 STARLINK-3239,1 49743U 21115V   23048.20974453 -.00003206  00000-0 -18355-3 0  9996,2 49743  53.2170 121.1940 0000932 108.1749 251.9345 15.08822213 68093,6917.935,95.439,540.445,539.155,0.0
49743.0,STARLINK-3239,PAYLOAD,2023-02-17 09:48:11,15.08820427,0.0001181,53.2165,120.2992,118.2682,241.8429,0.0010552,0.00016536,0.0,0 STARLINK-3239,1 49743U 21115V   23048.40846935  .00016536  00000-0  10552-2 0  9999,2 49743  53.2165 120.2992 0001181 118.2682 241.8429 15.08820427 67016,6917.94,95.439,540.622,538.988,0.0
49743.0,STARLINK-3239,PAYLOAD,2023-02-17 16:09:44,15.08824209,0.0001171,53.2167,119.111,108.3146,251.7974,0.0014484,0.00022828,0.0,0 STARLINK-3239,1 49743U 21115V   23048.67343506  .00022828  00000-0  14484-2 0  9993,2 49743  53.2167 119.1110 0001171 108.3146 251.7974 15.08824209 67052,6917.929,95.439,540.604,538.984,0.0
49743.0,STARLINK-3239,PAYLOAD,2023-02-18 11:14:23,15.08826152,0.0001911,53.2155,115.5435,92.0833,268.0378,0.0013065,0.00020558,0.0,0 STARLINK-3239,1 49743U 21115V   23049.46833281  .00020558  00000-0  13065-2 0  9997,2 49743  53.2155 115.5435 0001911  92.0833 268.0378 15.08826152 68287,6917.923,95.438,541.11,538.466,0.0
49743.0,STARLINK-3239,PAYLOAD,2023-02-19 11:05:10,15.08871687,0.000115,53.2162,111.0839,84.9858,275.1266,0.0015512,0.00024507,0.0,0 STARLINK-3239,1 49743U 21115V   23050.46192694  .00024507  00000-0  15512-2 0  9992,2 49743  53.2162 111.0839 0001150  84.9858 275.1266 15.08871687 67328,6917.784,95.436,540.444,538.853,0.0
49743.0,STARLINK-3239,PAYLOAD,2023-02-19 20:37:28,15.08856974,0.0001386,53.2169,109.2996,82.0062,278.1087,0.00013998,1.942e-05,0.0,0 STARLINK-3239,1 49743U 21115V   23050.85936327  .00001942  00000-0  13998-3 0  9999,2 49743  53.2169 109.2996 0001386  82.0062 278.1087 15.08856974 68490,6917.829,95.436,540.652,538.735,0.0
49743.0,STARLINK-3239,PAYLOAD,2023-02-20 07:45:11,15.08853794,0.000231,53.2154,107.2177,76.594,283.531,0.00027689,4.123e-05,0.0,0 STARLINK-3239,1 49743U 21115V   23051.32304487  .00004123  00000-0  27689-3 0  9994,2 49743  53.2154 107.2177 0002310  76.5940 283.5310 15.08853794 68568,6917.838,95.437,541.301,538.105,0.0
49743.0,STARLINK-3239,PAYLOAD,2023-02-20 12:31:20,15.08849987,0.0001477,53.2156,106.3288,103.7433,256.3723,9.2484e-05,1.185e-05,0.0,0 STARLINK-3239,1 49743U 21115V   23051.52176144  .00001185  00000-0  92484-4 0  9994,2 49743  53.2156 106.3288 0001477 103.7433 256.3723 15.08849987 67481,6917.85,95.437,540.737,538.693,0.0
49743.0,STARLINK-3239,PAYLOAD,2023-02-20 20:28:16,15.08847083,0.0001626,53.2161,104.8384,74.4389,285.6783,0.00010842,1.438e-05,0.0,0 STARLINK-3239,1 49743U 21115V   23051.85296339  .00001438  00000-0  10842-3 0  9997,2 49743  53.2161 104.8384 0001626  74.4389 285.6783 15.08847083 68642,6917.859,95.437,540.849,538.599,0.0
49743.0,STARLINK-3239,PAYLOAD,2023-02-21 10:46:44,15.08846018,0.0001682,53.2154,102.1631,77.0858,283.0322,0.00031594,4.745e-05,0.0,0 STARLINK-3239,1 49743U 21115V   23052.44912381  .00004745  00000-0  31594-3 0  9996,2 49743  53.2154 102.1631 0001682  77.0858 283.0322 15.08846018 67627,6917.862,95.437,540.891,538.563,0.0
